OBJECT_NAME,OBJECT_ID,EPOCH,MEAN_MOTION,ECCENTRICITY,INCLINATION,RA_OF_ASC_NODE,ARG_OF_PERICENTER,MEAN_ANOMALY,EPHEMERIS_TYPE,CLASSIFICATION_TYPE,NORAD_CAT_ID,ELEMENT_SET_NO,REV_AT_EPOCH,BSTAR,MEAN_MOTION_DOT,MEAN_MOTION_DDOT
MONITOR-4 (RS57S),2023-091S,2026-06-26T06:43:13.619136,15.28101435,.00127765,97.5079,240.7647,72.9470,287.3168,0,U,57182,999,16568,.42111983E-3,.11496E-3,0
MONITOR-2 (RS39S),2023-091U,2026-06-26T06:31:37.996320,15.18989857,.00127304,97.5073,235.4961,83.6823,276.5861,0,U,57184,999,16533,.253542E-3,.5246E-4,0
SVYATOBOR 1 (RS60S),2023-091X,2026-06-26T05:39:02.900736,15.26761893,.00105621,97.5092,241.1026,67.2226,293.0128,0,U,57187,999,16569,.38540502E-3,.10085E-3,0
HORS 1,2023-091Y,2026-06-26T06:51:40.548672,15.26872556,.00100035,97.5069,240.9144,67.1843,293.0451,0,U,57188,999,16570,.36487585E-3,.9573E-4,0
VIZARD-METEO (RS38S),2023-091Z,2026-06-26T06:24:45.667872,15.36302210,.00075918,97.5095,246.9352,49.5555,310.6350,0,U,57189,999,16608,.53438412E-3,.18871E-3,0
SITRO-AIS 6 (CHIRKIN),2023-091AC,2026-06-26T05:29:29.225472,15.26099042,.00128952,97.5071,240.2855,78.5844,281.6842,0,U,57192,999,16566,.43444409E-3,.11162E-3,0
SITRO-AIS 8 (ANOKHIN),2023-091AD,2026-06-26T05:31:15.921696,15.32368131,.00114012,97.5059,242.8414,71.8810,288.3672,0,U,57193,999,16583,.51387868E-3,.16028E-3,0
SITRO-AIS 7 (FARTUSHNIY),2023-091AE,2026-06-26T05:36:41.782752,15.25783527,.0012763,97.5069,240.1109,79.5637,280.7039,0,U,57194,999,16565,.43735609E-3,.1113E-3,0
AVION KALUGA 650,2023-091AF,2026-06-26T05:52:11.707680,15.20443509,.001183,97.5091,236.7842,82.0647,278.1931,0,U,57195,999,16540,.31689644E-3,.6858E-4,0
HORS 2,2023-091AG,2026-06-26T05:50:14.574336,15.32107901,.00087878,97.5092,244.3967,60.4740,299.7377,0,U,57196,999,16591,.47912672E-3,.14803E-3,0
A-SEANSAT-PG1,2023-091AH,2026-06-26T06:07:44.114016,15.37260622,.00076167,97.5083,247.0311,57.2883,302.9094,0,U,57197,999,16610,.54228988E-3,.19754E-3,0
SITRO-AIS 10 (BURDAEV),2023-091AK,2026-06-26T05:21:33.647040,15.38939421,.00067557,97.5084,247.9827,52.3295,307.8562,0,U,57199,999,16615,.57394663E-3,.22086E-3,0
SITRO-AIS 9 (SHCHUKIN),2023-091AM,2026-06-26T04:30:06.261408,15.38437236,.00070652,97.5083,247.6690,52.5123,307.6763,0,U,57201,999,16613,.55767993E-3,.21108E-3,0
UTMN 2 (RS27S),2023-091AP,2026-06-26T03:20:00.943584,15.32259314,.00086876,97.5090,244.4845,56.7092,303.4981,0,U,57203,999,16591,.49476404E-3,.15362E-3,0
SITRO-AIS 12 (SMIRENNIY),2023-091AQ,2026-06-26T05:47:46.371552,15.38733004,.00065447,97.5095,248.1970,47.1411,313.0383,0,U,57204,999,16616,.55740097E-3,.213E-3,0
SITRO-AIS 11 (SHEFFER),2023-091AU,2026-06-26T06:03:28.190304,15.39162921,.00064224,97.5093,248.4606,46.7784,313.3996,0,U,57208,999,16618,.53813015E-3,.2085E-3,0
H2SAT (HEINRICH HERTZ),2023-093A,2026-06-25T07:28:10.234848,1.00269986,.0000848,0.0482,107.4304,17.0766,261.6799,0,U,57213,999,1099,0,.11E-6,0
KUZGTU 1 (RS47S),2023-091AV,2026-06-26T06:08:41.559648,15.30058318,.00119211,97.5067,241.8287,69.8459,290.4063,0,U,57217,999,16576,.51135116E-3,.14843E-3,0
QIANKUN-1,2023-103B,2026-06-24T03:24:20.703456,16.07644797,.00336534,96.1516,219.4975,146.3074,214.0360,0,U,57422,999,16841,.35190923E-4,.29952E-3,.2050203E-5
FENGYUN 3F,2023-111A,2026-06-26T06:36:54.608256,14.19940444,.00015534,98.6834,247.1150,86.7222,273.4133,0,U,57490,999,15015,.33655987E-4,.28E-6,0
HJ-2F,2023-116A,2026-06-26T06:10:31.505376,15.22441999,.00088427,97.3841,182.3179,24.2548,335.9103,0,U,57519,999,16013,.34970192E-3,.803E-4,0
XRISM,2023-137A,2026-06-25T18:28:31.959840,15.12535306,.00078331,31.0027,304.0050,50.1002,310.0325,0,U,57800,999,15416,.27780799E-3,.5063E-4,0
METEOR-M2 4,2024-039A,2026-06-26T06:10:52.637952,14.22430451,.00077795,98.7013,136.4417,136.5657,223.6135,0,U,59051,999,12055,.25870352E-4,.14E-6,0
GRBBETA,2024-128C,2026-06-26T05:54:13.462560,15.06688945,.00394825,61.9878,184.4815,136.5630,223.8585,0,U,60237,999,10763,.23858982E-3,.3403E-4,0
TRANSPORTER-11 OBJECT A,2024-149A,2026-06-26T03:52:30.548352,15.33044999,.00036889,97.3733,257.0635,164.8407,195.2947,0,U,60468,999,10343,.32009955E-3,.10144E-3,0
WARATAH SEED-1,2024-149B,2026-06-26T03:59:19.669632,15.36158447,.00022733,97.3692,257.7497,156.9638,203.1708,0,U,60469,999,10349,.44103901E-3,.15471E-3,0
PHISAT 2,2024-149C,2026-06-26T04:43:29.353728,15.31176067,.00019458,97.3759,256.3631,156.1923,203.9409,0,U,60470,999,10337,.26090037E-3,.7781E-4,0
LEMUR-2-TOMATOKECHUP,2024-149D,2026-06-26T05:27:06.484032,15.36210776,.00022257,97.3804,259.2973,158.0389,202.0951,0,U,60471,999,10355,.35164995E-3,.12335E-3,0
CONNECTA IOT-1,2024-149E,2026-06-26T03:49:26.460192,15.23604196,.00009994,97.3760,253.2990,187.2692,172.8530,0,U,60472,999,10316,.20028479E-3,.4724E-4,0
