MONITOR-4 (RS57S)       
1 57182U 23091S   26177.28001874  .00011496  00000+0  42112-3 0  9994
2 57182  97.5079 240.7647 0012776  72.9470 287.3168 15.28101435165685
MONITOR-2 (RS39S)       
1 57184U 23091U   26177.27196755  .00005246  00000+0  25354-3 0  9993
2 57184  97.5073 235.4961 0012730  83.6823 276.5861 15.18989857165335
SVYATOBOR 1 (RS60S)     
1 57187U 23091X   26177.23545024  .00010085  00000+0  38541-3 0  9998
2 57187  97.5092 241.1026 0010562  67.2226 293.0128 15.26761893165697
HORS 1                  
1 57188U 23091Y   26177.28588598  .00009573  00000+0  36488-3 0  9995
2 57188  97.5069 240.9144 0010003  67.1843 293.0451 15.26872556165704
VIZARD-METEO (RS38S)    
1 57189U 23091Z   26177.26719523  .00018871  00000+0  53438-3 0  9993
2 57189  97.5095 246.9352 0007591  49.5555 310.6350 15.36302210166085
SITRO-AIS 6 (CHIRKIN)   
1 57192U 23091AC  26177.22881048  .00011162  00000+0  43444-3 0  9997
2 57192  97.5071 240.2855 0012895  78.5844 281.6842 15.26099042165665
SITRO-AIS 8 (ANOKHIN)   
1 57193U 23091AD  26177.23004539  .00016028  00000+0  51388-3 0  9993
2 57193  97.5059 242.8414 0011401  71.8810 288.3672 15.32368131165831
SITRO-AIS 7 (FARTUSHNIY)
1 57194U 23091AE  26177.23381693  .00011130  00000+0  43736-3 0  9990
2 57194  97.5069 240.1109 0012763  79.5637 280.7039 15.25783527165654
AVION KALUGA 650        
1 57195U 23091AF  26177.24457995  .00006858  00000+0  31690-3 0  9998
2 57195  97.5091 236.7842 0011830  82.0647 278.1931 15.20443509165402
HORS 2                  
1 57196U 23091AG  26177.24322424  .00014803  00000+0  47913-3 0  9991
2 57196  97.5092 244.3967 0008787  60.4740 299.7377 15.32107901165913
A-SEANSAT-PG1           
1 57197U 23091AH  26177.25537169  .00019754  00000+0  54229-3 0  9995
2 57197  97.5083 247.0311 0007616  57.2883 302.9094 15.37260622166109
SITRO-AIS 10 (BURDAEV)  
1 57199U 23091AK  26177.22330610  .00022086  00000+0  57395-3 0  9995
2 57199  97.5084 247.9827 0006755  52.3295 307.8562 15.38939421166159
SITRO-AIS 9 (SHCHUKIN)  
1 57201U 23091AM  26177.18757247  .00021108  00000+0  55768-3 0  9999
2 57201  97.5083 247.6690 0007065  52.5123 307.6763 15.38437236166130
UTMN 2 (RS27S)          
1 57203U 23091AP  26177.13889981  .00015362  00000+0  49476-3 0  9991
2 57203  97.5090 244.4845 0008687  56.7092 303.4981 15.32259314165913
SITRO-AIS 12 (SMIRENNIY)
1 57204U 23091AQ  26177.24150893  .00021300  00000+0  55740-3 0  9997
2 57204  97.5095 248.1970 0006544  47.1411 313.0383 15.38733004166168
SITRO-AIS 11 (SHEFFER)  
1 57208U 23091AU  26177.25240961  .00020850  00000+0  53813-3 0  9996
2 57208  97.5093 248.4606 0006422  46.7784 313.3996 15.39162921166182
H2SAT (HEINRICH HERTZ)  
1 57213U 23093A   26176.31122957  .00000011  00000+0  00000+0 0  9997
2 57213   0.0482 107.4304 0000848  17.0766 261.6799  1.00269986 10990
KUZGTU 1 (RS47S)        
1 57217U 23091AV  26177.25603657  .00014843  00000+0  51135-3 0  9991
2 57217  97.5067 241.8287 0011921  69.8459 290.4063 15.30058318165768
QIANKUN-1               
1 57422U 23103B   26175.14190629  .00029952  20502-5  35191-4 0  9996
2 57422  96.1516 219.4975 0033653 146.3074 214.0360 16.07644797168419
FENGYUN 3F              
1 57490U 23111A   26177.27563204  .00000028  00000+0  33656-4 0  9991
2 57490  98.6834 247.1150 0001553  86.7222 273.4133 14.19940444150151
HJ-2F                   
1 57519U 23116A   26177.25730909  .00008030  00000+0  34970-3 0  9994
2 57519  97.3841 182.3179 0008842  24.2548 335.9103 15.22441999160130
XRISM                   
1 57800U 23137A   26176.76981435  .00005063  00000+0  27781-3 0  9992
2 57800  31.0027 304.0050 0007833  50.1002 310.0325 15.12535306154168
METEOR-M2 4             
1 59051U 24039A   26177.25755368  .00000014  00000+0  25870-4 0  9992
2 59051  98.7013 136.4417 0007779 136.5657 223.6135 14.22430451120550
GRBBETA                 
1 60237U 24128C   26177.24598915  .00003403  00000+0  23859-3 0  9990
2 60237  61.9878 184.4815 0039482 136.5630 223.8585 15.06688945107632
TRANSPORTER-11 OBJECT A 
1 60468U 24149A   26177.16146468  .00010144  00000+0  32010-3 0  9991
2 60468  97.3733 257.0635 0003688 164.8407 195.2947 15.33044999103436
WARATAH SEED-1          
1 60469U 24149B   26177.16619988  .00015471  00000+0  44104-3 0  9999
2 60469  97.3692 257.7497 0002273 156.9638 203.1708 15.36158447103498
PHISAT 2                
1 60470U 24149C   26177.19686752  .00007781  00000+0  26090-3 0  9996
2 60470  97.3759 256.3631 0001945 156.1923 203.9409 15.31176067103379
LEMUR-2-TOMATOKECHUP    
1 60471U 24149D   26177.22715838  .00012335  00000+0  35165-3 0  9993
2 60471  97.3804 259.2973 0002225 158.0389 202.0951 15.36210776103554
CONNECTA IOT-1          
1 60472U 24149E   26177.15933403  .00004724  00000+0  20028-3 0  9991
2 60472  97.3760 253.2990 0000999 187.2692 172.8530 15.23604196103169
